IRIDIUM 126             
1 42809U 17039G   25015.60578002  .00000137  00000+0  41749-4 0  9993
2 42809  86.3971 209.9026 0001734  91.2828 268.8566 14.34217259395761
IRIDIUM 124             
1 42810U 17039H   25015.42837223  .00000735  00000+0  21245-3 0  9990
2 42810  86.4532 146.8256 0002503  98.8042 261.3442 14.43278463400433
IRIDIUM 128             
1 42811U 17039J   25015.59652570  .00000440  00000+0  15007-3 0  9991
2 42811  86.3949 241.4087 0002079  97.0540 263.0893 14.34222388395797
IRIDIUM 121             
1 42812U 17039K   25015.62482058  .00000149  00000+0  46147-4 0  9994
2 42812  86.3968 209.9183 0002243  88.4349 271.7104 14.34219331395648
IRIDIUM 133             
1 42955U 17061A   25015.69799296  .00000218  00000+0  70739-4 0  9990
2 42955  86.3951 241.4710 0001977  91.4017 268.7405 14.34219084380609
IRIDIUM 100             
1 42956U 17061B   25015.62188281  .00000038  00000+0  65301-5 0  9990
2 42956  86.3950 241.4337 0001977  93.5893 266.5528 14.34217888380599
IRIDIUM 122             
1 42957U 17061C   25015.59017017  .00000310  00000+0  10350-3 0  9990
2 42957  86.3956 241.4447 0001797  88.6783 271.4619 14.34218450380593
IRIDIUM 129             
1 42958U 17061D   25015.68529452  .00000392  00000+0  13278-3 0  9994
2 42958  86.3950 241.4675 0001852  75.2392 284.9009 14.34223705380626
